#dP2023  8 13  0  0  0.00000000      96 __u+U ITR00 EXT  IAC
## 2275      0.00000000   900.00000000 60169 0.0000000000000
+  117   C06C07C08C09C10C11C12C13C14C16C19C20C21C22C23C24C25
+        C26C27C28C29C30C32C33C34C35C36C37C38C39C40C41C42C43
+        C44C45C46E02E03E04E05E07E08E09E10E11E12E13E14E15E18
+        E19E21E24E26E27E30E31E33E34E36G01G02G03G04G05G06G07
+        G08G09G10G11G12G13G14G15G16G17G18G19G20G21G23G24G25
+        G26G27G28G29G30G31G32J02J03J04R01R02R03R04R05R07R08
+        R09R11R12R13R14R15R16R17R18R19R20R21R22R24R25  0  0
++        11 10 10 11 10  9  9 10  9 11 10  8  8  8  8  9  8
++         9  8  7 10  8  9  8  8  8  8  8 10 11 11  8  8  7
++        10  8  8  8  9  8  9  9  8  7  7  8  7  8  8  7  8
++         8  7  7  6  6  7  8  8  7  7  7  7  7  8  7  7  7
++         6  9  7  7  6  7  7  8  8  9  7  6  7  6  6  8  7
++         8  9  7  7  7  7  8 10  9 11  8  9  8  8  8  9  8
++         9  8  7  9  7  8  7  9  7  9 10  8  9  8  9  0  0
%c M  cc GPS ccc cccc cccc cccc cccc ccccc ccccc ccccc ccccc
%c cc cc ccc ccc cccc cccc cccc cccc ccccc ccccc ccccc ccccc
%f  0.0000000  0.000000000  0.00000000000  0.000000000000000
%f  0.0000000  0.000000000  0.00000000000  0.000000000000000
%i    0    0    0    0      0      0      0      0         0
%i    0    0    0    0      0      0      0      0         0
/* IAC                                ULTRA-RAPID PREDICTION
/* S/V CLOCKS ARE ALIGNED TO GNSS TIME                      
/* G:C1WC2W R:C1PC2P E:C1XC5X C:C2IC6I J:C1CC2S             
/* PCV:IGS20_2247 OL/AL:FES2004  NONE     YN ORB:CoN CLK:CoN
*  2023 08 13 17 45  0.00000000
PC06 -17199.728183  37189.188055   9347.010466    871.569663
PC07  -2726.518387  34204.805504  24708.453250     75.355936
PC08 -12044.741126  19379.527244 -35509.891178    391.140460
PC09 -10711.905531  36267.878703  18456.455869    296.718837
PC10   3564.323008  37015.703120  20700.225797   -144.485081
PC11 -13177.886983  24074.857396   5203.548944    777.454428
PC12 -17485.060277   8869.941522  19901.353644    867.882301
PC13  -4340.479774  21725.277468 -35752.357345    333.644295
PC14  -6145.567357  15964.384532 -22051.959712    221.711287
PC16 -18732.839784  36918.584273   7294.097298    -34.137836
PC19  -2568.512070 -21456.280322  17660.036235   -959.385454
PC20  12663.137157  -9283.829939  23073.988143    364.143115
PC21 -21503.339676  -9565.978022 -14968.131061   -948.883696
PC22 -17140.664767 -21934.475139   1718.011234   -352.960386
PC23  12496.027348  13244.105573  21158.206697   -906.496319
PC24 -24652.056798  10397.751928   7971.188209    280.073139
PC25  -7249.022639  16939.578897  20958.208885    188.694571
PC26 -26602.950301   -679.839795  -8468.856395   -162.727000
PC27  16494.588686    577.439934 -22523.348078    183.918937
PC28   7905.724370  18185.435460 -19635.822445    137.529769
PC29   5842.279622 -27003.969713   3897.640128    160.429609
PC30  16020.056093 -18236.501580 -13788.760993     -3.435105
PC32  21619.443735   9504.963198  14885.847011   -532.497872
PC33   2627.071215  21431.167112 -17693.111099   -936.438887
PC34 -15617.312965  19346.239197  12645.559637    236.381118
PC35  -8445.933946 -18156.138923  19436.691533    568.492954
PC36   8504.872064 -16701.749193 -20643.252803   -278.252182
PC37  26229.937967   1949.320049   9309.606546   -806.890735
PC38 -20453.149393  19919.315649 -31061.358693     97.942948
PC39 -20777.991839  36533.036859    275.277121     -4.299281
PC40  -6343.483392  30264.309314  28802.723074    -32.782065
PC41  16867.231697  22107.315153  -2373.860539   -888.928850
PC42 -13693.754644   8039.192598 -22909.703711   -579.035479
PC43  -6450.156379  26969.118530  -3075.331765     35.109006
PC44 -16569.404681   -236.263609  22435.890146    199.005826
PC45 -13037.184678 -12898.299862 -21032.290612    -13.568308
PC46  23895.315554 -11029.175264  -9218.613439    -76.284320
PE02 -19908.158449   7231.633697  20685.018823     55.432334
PE03 -12430.828768  16790.328225 -20980.152696    -45.618139
PE04    382.478808 -28892.564779   6418.286507   -188.587408
PE05 -17329.332324  -5235.172779 -23417.562561      8.684157
PE07  11904.551556  24377.288781  11859.296241    -67.121044
PE08   -589.094466  28802.453404  -6834.731088   -129.777646
PE09 -11788.574004 -24455.142443 -11776.778031   -119.186054
PE10    443.536104 -18973.933026  22698.699956   -555.841098
PE11 -10017.240499 -12568.215012  24840.876400   2716.335709
PE12   9883.356016 -21956.646276  17213.170905   -656.630639
PE13   9314.702693  13028.188611 -24895.397834    -19.429427
PE14  -1130.536434 -24266.159532   -459.155072    310.281588
PE15 -10233.756503  21988.402325 -16971.098382    -44.829735
PE18   9291.854693  29340.858907  -9438.182795    409.458294
PE19  13529.436199 -14165.423680  22196.398251  -1858.631167
PE21  28130.351772   6661.644282  -6363.707506   -546.452888
PE24 -19912.674444 -17745.041374 -12861.792653   -263.846908
PE26  23496.562809  -3937.103868 -17562.294205    191.744752
PE27  20456.763916  17459.496417  12366.986087   -123.678415
PE30    239.752132  17771.067204  23666.480386   -415.109892
PE31   -838.897747 -17847.575934 -23586.039020     -2.594195
PE33  23741.321103 -17610.789183  -1405.464392     -1.583345
PE34 -23485.320698  18015.865657    745.104853    -61.353570
PE36 -23138.563264   3431.985012  18135.157725   -100.520700
PG01 -10111.888347  19471.896863 -15059.066912    168.738858
PG02 -15051.632573  20250.465320  -7512.028954   -565.842620
PG03    259.350690  15809.470265 -21503.922493   -188.772555
PG04   -875.312190  26106.150165  -4434.277675    124.559979
PG05  16096.966947  -8206.816170  19320.963544   -138.666411
PG06  20530.790030  -1380.258849 -16786.630052    566.728281
PG07   6545.401528  14478.604458  21709.323712     96.825721
PG08  -7279.532076  20720.682342  14575.419911   -137.021364
PG09   6814.874718  25231.598207   4508.552980    -87.528193
PG10 -24228.446139 -11253.664328   1265.774062    -49.129956
PG11  23281.484091 -11862.809686  -4605.726337   -319.299580
PG12   4899.003800 -14582.102738 -21930.456661   -412.474636
PG13  13002.298487 -13405.361376  18612.185789    559.656062
PG14  22567.890468  13612.901239   3971.696474    152.947175
PG15   4306.013784 -22132.015990  13367.115837     67.307498
PG16 -20184.778803   2562.290232  17000.254720   -468.682580
PG17  12913.760691  14377.192406 -17737.824030    722.663538
PG18  -8229.939646 -12460.663476  21961.748547   -381.249599
PG19  14700.762712   6375.255340 -21446.736305    357.186042
PG20  23503.374258  -3092.899001  11819.107857    417.423469
PG21 -16448.250774  19459.533221  -5045.745539    150.786286
PG23 -17183.422972 -15971.612038  12618.140350     54.668619
PG24  12164.183611 -21180.218341 -10267.247067   -288.637084
PG25 -10080.667239 -17659.456783 -17538.049841    461.956078
PG26 -25459.886726  -2937.524853   7507.073187    233.073003
PG27 -13208.341230   9440.032156  20683.714361    -21.370383
PG28 -19691.701232   -140.820446 -17843.643482     76.461390
PG29  -4036.486018 -25831.725747   4305.088452   -607.708061
PG30  15477.229032   7342.887087  20477.906272   -496.730682
PG31 -23555.740258   8295.324628  -9816.652553   -221.765754
PG32 -14954.527733 -10141.865208 -19353.359739   -539.907792
PJ02 -28592.096613  20737.769939  28113.314829     -2.510414
PJ03 -33484.941816  25452.657625   8827.942166     -1.014669
PJ04 -20165.415247  24795.900357 -22429.782023     70.498820
PR01 -10523.105258   3764.763306 -22931.883813     63.411480
PR02   1213.155776  18610.593686 -17327.992122    -22.535038
PR03  12021.576334  22397.282995  -1669.938735     83.244157
PR04  15664.155905  13929.391744  14550.509748    198.555633
PR05  11003.345758  -2140.120253  22918.479240    117.273257
PR07 -12343.617028 -22335.479424    946.965534     62.360235
PR08 -15799.798524 -13724.579342 -14552.425011    -72.116181
PR09   8728.736894 -10856.551835 -21363.576292    136.514317
PR11 -23157.763782  -4295.670195  -9755.906184   -131.341396
PR12 -23274.495939   4663.505377   9385.670394     30.138615
PR13 -10894.309546  10156.311740  20700.253511    -38.107695
PR14  10421.545925  10080.157366  21010.732217     25.084312
PR15  23713.767865   3986.589868   8549.337889     87.042211
PR16  23413.710206  -4598.036015  -9053.445902     17.671283
PR17     45.207098  17051.247202 -18986.705614      8.542268
PR18  10524.600397   2626.681057 -23077.708215     96.600615
PR19  15898.248142 -11361.375135 -16392.036301   -243.368940
PR20  12388.798294 -22067.258721   3333.136160    -98.240711
PR21   -693.614341 -16201.309026  19673.383266    -30.098288
PR22 -11289.692569  -2287.518424  22781.998921    112.438722
PR24 -11226.236815  22585.736730  -3885.480831    -20.326204
PR25    493.060065 -17158.640980  18859.681982     42.815391
EOF
